1 28859U 01049PM  18241.82339018  .00001891  00000-0  11678-3 0  9991
2 28859  97.7147 246.6088 0019070 174.0786 186.0672 15.11020850828116
1 28897U 05043H   18241.95750340 +.00000138 +00000-0 +34974-4 0  9998
2 28897 097.9156 030.9900 0015947 186.4084 296.1586 14.64026419676802
1 29042U 04035J   18241.83311190 -.00000418 +00000-0 -30425-4 0  9994
2 29042 097.7494 259.9898 0007394 280.5568 079.4821 14.98003232284216
1 29043U 04035K   18241.25217352 +.00000120 +00000-0 +15271-4 0  9996
2 29043 097.7618 261.3633 0007483 316.3623 043.7006 14.97764885692172
1 29104U 01049PN  18239.84475837  .00004786  00000-0  21919-3 0  9999
2 29104  97.5132 250.3823 0017345 339.4648  20.5888 15.20845559762207
1 29105U 04021G   18241.61852609  .00000803  00000-0  69655-3 0  9992
2 29105  70.9239 234.6250 0214623  14.5420 346.1727 13.79095514708778
1 29106U 05049E   18242.38087149  .00000009  00000-0  00000+0 0  9991
2 29106   8.5956  50.7091 0018320 174.7628  48.4701  1.01166130 46108
1 29215U 02024F   18241.56859006 +.00000128 +00000-0 +17358-3 0  9990
2 29215 098.8134 140.3392 0247791 142.0445 337.9280 13.62180022792348
1 29216U 02024G   18242.76468929  .00000062  00000-0  99011-4 0  9998
2 29216  98.8058 219.3684 0230788  37.9765  81.0088 13.67305051802914
1 29217U 05024H   18241.68511738 +.00001964 +00000-0 +15633-3 0  9998
2 29217 097.6083 327.9173 0108884 182.1144 177.9633 14.96985849700576
1 29419U 03037D   13247.60541910 +.00000052 +00000-0 +29559-3 0  9991
2 29419 082.4735 014.9152 0024624 188.2064 188.7298 12.45651385453156
1 29421U 03037F   13281.19500608 +.00000012 +00000-0 +15703-4 0  9998
2 29421 082.4746 353.9503 0025727 117.3876 242.5210 12.45640837453542
1 29422U 04023D   18242.26423395  .00036906  47533-6  24512-3 0  9998
2 29422  38.8563 215.9356 3606350 133.2459 263.2004  8.34359808286714
1 29509U 06046E   18242.01850226  .00000180  00000-0  22608-4 0  9993
2 29509  97.9831 249.4223 0044821   6.1812 353.9951 14.93573744642584
1 29519U 04029D   18242.31519012  .00012587  00000-0  19980-2 0  9992
2 29519  88.1064 194.6102 3653283 203.2669 337.8447  7.96744559206220
1 29524U 06050C   18241.63925206 +.00000418 +00000-0 +21688-3 0  9993
2 29524 098.7804 265.8691 0007038 142.3204 336.4642 14.20092124610797
1 29525U 06050D   18241.96432795 +.00000355 +00000-0 +18493-3 0  9996
2 29525 098.7648 267.2278 0005586 139.3645 289.3010 14.20823839611074
1 29534U 05038D   18240.17064260 +.00001026 +00000-0 +19707-3 0  9996
2 29534 039.4145 235.9219 5852733 349.3631 002.2244 04.27017203185895
1 29536U 06015C   18242.45328270  .00000408  00000-0  93204-4 0  9999
2 29536  97.8541 319.2274 0162377 340.6471  18.8605 14.53131002647993
1 29537U 06015D   18241.11647192 +.00000307 +00000-0 +74410-4 0  9995
2 29537 097.9720 352.3899 0171382 045.0030 316.4908 14.51082083647005
1 29538U 06015E   18241.86406390 +.00000709 +00000-0 +13598-3 0  9996
2 29538 097.8665 026.2027 0145550 207.5137 151.8306 14.60215590649695
1 29539U 06015F   18242.16156545  .00000693  00000-0  13257-3 0  9999
2 29539  97.8757   5.0440 0137222 173.3950 309.6048 14.61072818651045
1 29600U 06050BS  18241.97296425 +.00000465 +00000-0 +23022-3 0  9995
2 29600 098.7593 269.1732 0008795 157.3056 267.9021 14.22028722609378
1 29676U 05049F   18200.04349691 -.00000225 +00000-0 +00000-0 0  9995
2 29676 008.4413 050.6093 0034866 338.9675 185.9332 01.02231434044473
1 31131U 03049D   18242.35748590  .00000232  00000-0  97694-4 0  9999
2 31131  98.6441 191.6403 0135628 149.2009   3.0211 14.29704229592033
1 31139U 03049E   18241.72174145  .00000398  00000-0  11313-3 0  9992
2 31139  98.1928 214.8801 0093365   7.3092 352.9438 14.48058360598967
1 31391U 06029D   18242.13223727  .00001027  00000-0  42728-4 0  9995
2 31391  64.5021 132.6069 0036125 261.9263  97.7767 15.29970852657717
1 31392U 06029E   18241.11147937  .00001345  00000-0  54708-4 0  9995
2 31392  64.5027 143.4481 0032418 259.5751 100.1724 15.29231263658627
1 31409U 05024J   18241.93554505  .00000489  00000-0  28364-4 0  9998
2 31409  97.5225 288.3501 0013378 135.5375 224.6934 15.16737712701847
1 31794U 07029C   18242.05238294  .00000051  00000-0  89257-4 0  9993
2 31794  71.0404  89.0215 0205856  33.7526 120.1641 13.71036693558988
1 31795U 07029D   18241.92106205 -.00000066 +00000-0 -24693-4 0  9996
2 31795 070.9455 092.6962 0222027 125.0851 342.0396 13.67867796557653
1 31796U 07029E   18241.87910986 +.00000135 +00000-0 +17562-3 0  9991
2 31796 071.0425 127.6869 0214188 082.3803 358.1618 13.68189288557771
1 31799U 07029F   18241.82945866  .00000041  00000-0  84777-4 0  9993
2 31799  70.9413 117.8139 0227100 171.3951 264.4556 13.65750802556560
1 32005U 04021H   18225.70456912 +.00000817 +00000-0 +73782-3 0  9995
2 32005 071.0962 347.1372 0215428 259.4993 098.1775 13.76777871254111
1 32006U 04021J   18235.36791654  .00000367  00000-0  34085-3 0  9997
2 32006  71.0967 244.9575 0185073 142.2781 219.1470 13.80822763703923
1 32033U 06006L   18239.82249212  .00000015  00000-0  74332-4 0  9995
2 32033  51.6870  61.2754 5108084 294.5017  21.3278  5.25226214219317
1 32036U 06006P   18240.01351769 -.00000027  00000-0  45073-4 0  9996
2 32036  51.7066  43.8193 5117819 305.5860  16.7871  5.25598598220323
1 32037U 06006Q   18241.15437660  .00001940  00000-0  80247-3 0  9993
2 32037  51.5890 143.5057 4954581 140.6989 268.5915  5.61083062230005
1 32040U 06006T   18241.26775886 +.00001800 +00000-0 +92407-3 0  9990
2 32040 051.6112 259.7444 5009521 056.1557 341.9926 05.50111084110947
1 32041U 06006U   18052.27072839 +.00001336 +00000-0 +31895-3 0  9998
2 32041 051.7855 349.7431 4506221 235.2563 292.4674 06.41498818231100
1 32044U 06006X   18026.18931859 -.00002437 +00000-0 -10732+0 0  9996
2 32044 051.0968 047.3787 4955821 164.3053 219.5754 04.79906258047370
1 32473U 07042C   18242.14296816  .00000261  00000-0  76328-4 0  9995
2 32473  98.2362 314.3402 0110715  36.9454 323.9300 14.48299993565941
1 32474U 07042D   18241.83001203 +.00000464 +00000-0 +86946-4 0  9997
2 32474 098.6594 189.4142 0098515 216.9347 142.5045 14.67163457579693
1 32491U 06006AE  13320.37222416 +.00237901 +00000-0 +19370-1 0  9990
2 32491 051.4460 290.0775 3240588 236.8047 322.6474 08.82360017139311
1 32492U 06006AF  18020.95417419  .00000044  00000-0  62249-4 0  9998
2 32492  51.3619 216.9333 4979133 218.7071 339.3329  5.31555280210106
1 32493U 06006AG  18242.15244567  .00000513  00000-0  45065-3 0  9996
2 32493  51.5885 290.9426 5009544  38.9116 348.2550  5.44803385224940
1 32494U 06006AH  18242.48567879 -.00000003  00000-0  38951-4 0  9999
2 32494  51.6669  51.9635 5104839 305.1375  17.0349  5.25635632220072
1 32496U 06006AK  18230.46827615 -.00000244  00000-0 -15452-3 0  9991
2 32496  51.7789  31.7328 5054926 309.6955  29.4721  5.35969558209916
1 32497U 06006AL  18065.46395795  .00000388  00000-0  45703-3 0  9996
2 32497  51.7043 134.2546 5054237 233.8777  68.2190  5.34364830202236
1 32498U 06006AM  17351.73456019  .00003767  00000-0  35438-2 0  9998
2 32498  51.6961 149.6245 4959895 225.1727  81.9343  5.51064894199382
1 32499U 06006AN  18242.35116873  .00001747  00000-0  66713-3 0  9995
2 32499  51.6096 204.5898 4961528  93.8453 321.8834  5.60740679217170
1 33458U 06053D   18241.01425415 -.00000092  00000-0  00000+0 0  9996
2 33458   6.6791  55.9650 0084487 335.8749  23.9060  1.00299454 36760
1 34220U 01049PQ  15357.22596365  .00003417  00000-0  13459-3 0  9994
2 34220  98.1773 348.9789 0008434  86.5561 273.6640 15.26385840629193
1 34221U 01049PR  18242.75250636 -.00000224  00000-0 -10458-4 0  9999
2 34221  98.5403 212.8501 0076812 215.4166 144.1941 15.01113480887585
1 34223U 02024H   18240.15216806  .00000097  00000-0  87482-4 0  9995
2 34223  99.1871 223.3447 0131771 309.2802  49.6734 14.01936406812963
1 34224U 06006AP  18241.95476642  .00000411  00000-0  11562-2 0  9999
2 34224  52.1082 138.8722 5023760 156.4678 238.3236  5.26876134198632
1 34226U 06006AR  18049.49311893 +.00002163 +00000-0 +19082-2 0  9993
2 34226 051.6700 110.1122 5027033 256.1729 045.1464 05.41300501095836
1 34227U 06006AS  18229.94282683 +.00000304 +00000-0 +12671-2 0  9990
2 34227 052.0355 054.6146 4920879 245.0274 332.3768 05.38483845094967
1 34228U 06006AT  11337.07599237 +.00086168 +00000-0 +30133-1 0  9998
2 34228 051.8664 211.9560 4577633 170.6514 354.1589 06.25036147076185
1 34229U 06006AU  18009.32360739 +.00006549 +00000-0 +28097-2 0  9995
2 34229 051.4167 112.1454 4505833 210.6617 112.9037 06.34739125078115
1 34230U 06006AV  18106.15916284  .00000185  00000-0  20302-3 0  9990
2 34230  51.4138 119.3291 5051028 235.3600  66.3577  5.32398254193820
1 34231U 06006AW  18240.50313337 -.00001996 +00000-0 -99703-2 0  9992
2 34231 052.0538 311.8255 5052791 049.6856 017.7018 05.12406347070890
1 34232U 06006AX  10188.84941953 +.00027218 +00000-0 +13005-1 0  9997
2 34232 051.6387 013.0302 5062914 165.2742 218.0214 05.42263510042517
1 34233U 06006AY  18087.46882538  .00000741  00000-0  11975-2 0  9992
2 34233  52.1877 137.1998 4867383 157.4242 234.6232  5.58371902194061
1 34234U 06006AZ  18241.70578397 +.00001673 +00000-0 +93836-3 0  9999
2 34234 051.5432 160.6924 4827985 135.6288 275.2147 05.78345694208203
1 34235U 06006BA  18044.61826835  .00000515  00000-0  77905-3 0  9997
2 34235  51.6925 152.2920 5030396 221.8249  86.3350  5.36125851189922
1 34236U 06006BB  18240.60356934  .00002186  00000-0  98266-3 0  9992
2 34236  51.6330 238.4573 5021707  66.8723 337.5387  5.49480629203080
1 34237U 06006BC  14231.07464448 +.00002331 +00000-0 +35286-2 0  9994
2 34237 051.7761 025.4036 4999229 231.5630 072.0905 05.39101773120194
1 34238U 06006BD  18111.61863099 +.00000795 +00000-0 +14402-2 0  9990
2 34238 051.6927 222.5978 5083257 182.7204 173.3308 05.24195058088629
1 34239U 06006BE  18230.33799535  .00006808  00000-0  17348-1 0  9997
2 34239  50.4708 222.5531 2303554 241.6816  93.2943  9.77654643361648
1 34241U 06006BG  18191.33728624 -.00000294  00000-0 -76810-3 0  9993
2 34241  51.8097  78.9370 4952297 261.2721 319.4077  5.35822368209193
